start=new Date('2022-06-22T00:00:00.000Z').valueOf();
sats=[{"TIME_SYSTEM":"UTC","PERIAPSIS":"537.648","DECAY_DATE":null,"APOAPSIS":"541.823","OBJECT_NAME":"STARLINK-3241","BSTAR":"0.00014137000000","REF_FRAME":"TEME","REV_AT_EPOCH":"3069","MEAN_MOTION_DOT":"0.00001962","MEAN_MOTION_DDOT":"0.0000000000000","GP_ID":"206582357","CENTER_NAME":"EARTH","COUNTRY_CODE":"US","ARG_OF_PERICENTER":"53.9628","SITE":"AFETR","MEAN_ELEMENT_THEORY":"SGP4","EPHEMERIS_TYPE":"0","ECCENTRICITY":"0.00030180","OBJECT_ID":"2021-115X","FILE":"3499203","LAUNCH_DATE":"2021-12-02","CLASSIFICATION_TYPE":"U","TLE_LINE1":"1 49745U 21115X   22172.83188565  .00001962  00000-0  14137-3 0  9994","SEMIMAJOR_AXIS":"6917.870","NORAD_CAT_ID":"49745","RCS_SIZE":"LARGE","OBJECT_TYPE":"PAYLOAD","RA_OF_ASC_NODE":"120.3042","INCLINATION":"53.2151","EPOCH":"2022-06-21T19:57:54.920160","MEAN_ANOMALY":"306.1644","MEAN_MOTION":"15.08843255","TLE_LINE2":"2 49745  53.2151 120.3042 0003018  53.9628 306.1644 15.08843255 30698","ELEMENT_SET_NO":"999","PERIOD":"95.437"},{"LAUNCH_DATE":"2021-12-02","FILE":"3499203","ECCENTRICITY":"0.00022370","OBJECT_ID":"2021-115Y","TLE_LINE1":"1 49746U 21115Y   22172.85028643 -.00000719  00000-0 -27074-4 0  9993","CLASSIFICATION_TYPE":"U","MEAN_ANOMALY":"306.3397","EPOCH":"2022-06-21T20:24:24.747552","RA_OF_ASC_NODE":"120.2187","INCLINATION":"53.2144","RCS_SIZE":"LARGE","OBJECT_TYPE":"PAYLOAD","NORAD_CAT_ID":"49746","SEMIMAJOR_AXIS":"6917.870","PERIOD":"95.437","ELEMENT_SET_NO":"999","MEAN_MOTION":"15.08843395","TLE_LINE2":"2 49746  53.2144 120.2187 0002237  53.7802 306.3397 15.08843395 30696","BSTAR":"-0.00002707400000","OBJECT_NAME":"STARLINK-3233","APOAPSIS":"541.283","DECAY_DATE":null,"PERIAPSIS":"538.187","TIME_SYSTEM":"UTC","CENTER_NAME":"EARTH","GP_ID":"206583109","MEAN_MOTION_DDOT":"0.0000000000000","MEAN_MOTION_DOT":"-0.00000719","REV_AT_EPOCH":"3069","REF_FRAME":"TEME","EPHEMERIS_TYPE":"0","MEAN_ELEMENT_THEORY":"SGP4","SITE":"AFETR","ARG_OF_PERICENTER":"53.7802","COUNTRY_CODE":"US"},{"EPHEMERIS_TYPE":"0","MEAN_ELEMENT_THEORY":"SGP4","ARG_OF_PERICENTER":"55.3569","COUNTRY_CODE":"US","SITE":"AFETR","GP_ID":"206583354","CENTER_NAME":"EARTH","REF_FRAME":"TEME","MEAN_MOTION_DDOT":"0.0000000000000","REV_AT_EPOCH":"3069","MEAN_MOTION_DOT":"0.00000186","DECAY_DATE":null,"APOAPSIS":"541.569","PERIAPSIS":"537.946","BSTAR":"0.00002982800000","OBJECT_NAME":"STARLINK-3247","TIME_SYSTEM":"UTC","ELEMENT_SET_NO":"999","PERIOD":"95.438","MEAN_MOTION":"15.08836034","TLE_LINE2":"2 49747  53.2154 120.2543 0002619  55.3569 304.7670 15.08836034 30694","MEAN_ANOMALY":"304.7670","EPOCH":"2022-06-21T20:08:30.904512","NORAD_CAT_ID":"49747","SEMIMAJOR_AXIS":"6917.893","INCLINATION":"53.2154","RA_OF_ASC_NODE":"120.2543","OBJECT_TYPE":"PAYLOAD","RCS_SIZE":"LARGE","TLE_LINE1":"1 49747U 21115Z   22172.83924658  .00000186  00000-0  29828-4 0  9998","CLASSIFICATION_TYPE":"U","FILE":"3499203","LAUNCH_DATE":"2021-12-02","ECCENTRICITY":"0.00026190","OBJECT_ID":"2021-115Z"},{"OBJECT_NAME":"STARLINK-3248","BSTAR":"-0.00003469100000","PERIAPSIS":"537.763","DECAY_DATE":null,"APOAPSIS":"541.657","TIME_SYSTEM":"UTC","CENTER_NAME":"EARTH","GP_ID":"206584102","REV_AT_EPOCH":"3070","MEAN_MOTION_DOT":"-0.00000841","MEAN_MOTION_DDOT":"0.0000000000000","REF_FRAME":"TEME","MEAN_ELEMENT_THEORY":"SGP4","EPHEMERIS_TYPE":"0","SITE":"AFETR","COUNTRY_CODE":"US","ARG_OF_PERICENTER":"52.3226","LAUNCH_DATE":"2021-12-02","FILE":"3499203","OBJECT_ID":"2021-115AA","ECCENTRICITY":"0.00028140","TLE_LINE1":"1 49748U 21115AA  22172.85764231 -.00000841  00000-0 -34691-4 0  9994","CLASSIFICATION_TYPE":"U","EPOCH":"2022-06-21T20:35:00.295584","MEAN_ANOMALY":"307.8021","OBJECT_TYPE":"PAYLOAD","RCS_SIZE":"LARGE","RA_OF_ASC_NODE":"120.1830","INCLINATION":"53.2208","SEMIMAJOR_AXIS":"6917.845","NORAD_CAT_ID":"49748","PERIOD":"95.437","ELEMENT_SET_NO":"999","TLE_LINE2":"2 49748  53.2208 120.1830 0002814  52.3226 307.8021 15.08851551 30704","MEAN_MOTION":"15.08851551"},{"BSTAR":"0.00001019300000","OBJECT_NAME":"STARLINK-3250","DECAY_DATE":null,"PERIAPSIS":"538.103","APOAPSIS":"541.386","TIME_SYSTEM":"UTC","CENTER_NAME":"EARTH","GP_ID":"206582857","MEAN_MOTION_DDOT":"0.0000000000000","REV_AT_EPOCH":"3069","MEAN_MOTION_DOT":"-0.00000126","REF_FRAME":"TEME","EPHEMERIS_TYPE":"0","MEAN_ELEMENT_THEORY":"SGP4","SITE":"AFETR","ARG_OF_PERICENTER":"54.6874","COUNTRY_CODE":"US","LAUNCH_DATE":"2021-12-02","FILE":"3499203","ECCENTRICITY":"0.00023730","OBJECT_ID":"2021-115AB","TLE_LINE1":"1 49749U 21115AB  22172.84660692 -.00000126  00000-0  10193-4 0  9996","CLASSIFICATION_TYPE":"U","MEAN_ANOMALY":"305.4340","EPOCH":"2022-06-21T20:19:06.837888","RA_OF_ASC_NODE":"120.2278","INCLINATION":"53.2166","RCS_SIZE":"LARGE","OBJECT_TYPE":"PAYLOAD","SEMIMAJOR_AXIS":"6917.880","NORAD_CAT_ID":"49749","PERIOD":"95.438","ELEMENT_SET_NO":"999","TLE_LINE2":"2 49749  53.2166 120.2278 0002373  54.6874 305.4340 15.08840285 30697","MEAN_MOTION":"15.08840285"},{"MEAN_MOTION":"15.08836576","TLE_LINE2":"2 49750  53.2185 120.1519 0003294  50.1920 309.9362 15.08836576 30706","ELEMENT_SET_NO":"999","PERIOD":"95.438","NORAD_CAT_ID":"49750","SEMIMAJOR_AXIS":"6917.891","OBJECT_TYPE":"PAYLOAD","RCS_SIZE":"LARGE","INCLINATION":"53.2185","RA_OF_ASC_NODE":"120.1519","EPOCH":"2022-06-21T20:45:37.011744","MEAN_ANOMALY":"309.9362","CLASSIFICATION_TYPE":"U","TLE_LINE1":"1 49750U 21115AC  22172.86501171 -.00000007  00000-0  17735-4 0  9993","OBJECT_ID":"2021-115AC","ECCENTRICITY":"0.00032940","FILE":"3499203","LAUNCH_DATE":"2021-12-02","COUNTRY_CODE":"US","ARG_OF_PERICENTER":"50.1920","SITE":"AFETR","MEAN_ELEMENT_THEORY":"SGP4","EPHEMERIS_TYPE":"0","REF_FRAME":"TEME","MEAN_MOTION_DOT":"-0.00000007","REV_AT_EPOCH":"3070","MEAN_MOTION_DDOT":"0.0000000000000","GP_ID":"206582610","CENTER_NAME":"EARTH","TIME_SYSTEM":"UTC","PERIAPSIS":"537.477","DECAY_DATE":null,"APOAPSIS":"542.035","OBJECT_NAME":"STARLINK-3236","BSTAR":"0.00001773500000"},{"APOAPSIS":"541.452","DECAY_DATE":null,"PERIAPSIS":"538.035","BSTAR":"-0.00000027163000","OBJECT_NAME":"STARLINK-3229","TIME_SYSTEM":"UTC","EPHEMERIS_TYPE":"0","MEAN_ELEMENT_THEORY":"SGP4","ARG_OF_PERICENTER":"49.8729","COUNTRY_CODE":"US","SITE":"AFETR","GP_ID":"206583854","CENTER_NAME":"EARTH","REF_FRAME":"TEME","MEAN_MOTION_DDOT":"0.0000000000000","REV_AT_EPOCH":"3070","MEAN_MOTION_DOT":"-0.00000293","TLE_LINE1":"1 49751U 21115AD  22172.85396463 -.00000293  00000-0 -27163-6 0  9995","CLASSIFICATION_TYPE":"U","FILE":"3499203","LAUNCH_DATE":"2021-12-02","ECCENTRICITY":"0.00024700","OBJECT_ID":"2021-115AD","ELEMENT_SET_NO":"999","PERIOD":"95.438","TLE_LINE2":"2 49751  53.2207 120.1937 0002470  49.8729 310.2480 15.08840695 30706","MEAN_MOTION":"15.08840695","MEAN_ANOMALY":"310.2480","EPOCH":"2022-06-21T20:29:42.544032","NORAD_CAT_ID":"49751","SEMIMAJOR_AXIS":"6917.878","RA_OF_ASC_NODE":"120.1937","INCLINATION":"53.2207","RCS_SIZE":"LARGE","OBJECT_TYPE":"PAYLOAD"},{"MEAN_ELEMENT_THEORY":"SGP4","EPHEMERIS_TYPE":"0","SITE":"AFETR","COUNTRY_CODE":"US","ARG_OF_PERICENTER":"57.3643","CENTER_NAME":"EARTH","GP_ID":"206550105","MEAN_MOTION_DOT":"0.00005365","REV_AT_EPOCH":"3079","MEAN_MOTION_DDOT":"0.0000000000000","REF_FRAME":"TEME","OBJECT_NAME":"STARLINK-3209","BSTAR":"0.00035479000000","PERIAPSIS":"538.169","DECAY_DATE":null,"APOAPSIS":"541.253","TIME_SYSTEM":"UTC","PERIOD":"95.437","ELEMENT_SET_NO":"999","MEAN_MOTION":"15.08851311","TLE_LINE2":"2 49752  53.2170 111.5753 0002229  57.3643 302.7564 15.08851311 30792","EPOCH":"2022-06-21T13:11:11.517504","MEAN_ANOMALY":"302.7564","OBJECT_TYPE":"PAYLOAD","RCS_SIZE":"LARGE","INCLINATION":"53.2170","RA_OF_ASC_NODE":"111.5753","SEMIMAJOR_AXIS":"6917.846","NORAD_CAT_ID":"49752","TLE_LINE1":"1 49752U 21115AE  22172.54943886  .00005365  00000-0  35479-3 0  9998","CLASSIFICATION_TYPE":"U","LAUNCH_DATE":"2021-12-02","FILE":"3498878","OBJECT_ID":"2021-115AE","ECCENTRICITY":"0.00022290"},{"PERIOD":"95.438","ELEMENT_SET_NO":"999","MEAN_MOTION":"15.08835352","TLE_LINE2":"2 49753  53.2186 121.0616 0003150  54.2358 305.8927 15.08835352 30678","EPOCH":"2022-06-21T15:54:09.127296","MEAN_ANOMALY":"305.8927","OBJECT_TYPE":"PAYLOAD","RCS_SIZE":"LARGE","INCLINATION":"53.2186","RA_OF_ASC_NODE":"121.0616","NORAD_CAT_ID":"49753","SEMIMAJOR_AXIS":"6917.895","TLE_LINE1":"1 49753U 21115AF  22172.66260564  .00000408  00000-0  43778-4 0  9992","CLASSIFICATION_TYPE":"U","LAUNCH_DATE":"2021-12-02","FILE":"3499203","ECCENTRICITY":"0.00031500","OBJECT_ID":"2021-115AF","MEAN_ELEMENT_THEORY":"SGP4","EPHEMERIS_TYPE":"0","SITE":"AFETR","COUNTRY_CODE":"US","ARG_OF_PERICENTER":"54.2358","CENTER_NAME":"EARTH","GP_ID":"206582358","REV_AT_EPOCH":"3067","MEAN_MOTION_DOT":"0.00000408","MEAN_MOTION_DDOT":"0.0000000000000","REF_FRAME":"TEME","OBJECT_NAME":"STARLINK-3200","BSTAR":"0.00004377800000","DECAY_DATE":null,"APOAPSIS":"541.939","PERIAPSIS":"537.580","TIME_SYSTEM":"UTC"},{"MEAN_ANOMALY":"313.1235","EPOCH":"2022-06-21T19:23:32.356896","SEMIMAJOR_AXIS":"6917.871","NORAD_CAT_ID":"49754","INCLINATION":"53.2177","RA_OF_ASC_NODE":"110.3985","RCS_SIZE":"LARGE","OBJECT_TYPE":"PAYLOAD","ELEMENT_SET_NO":"999","PERIOD":"95.437","TLE_LINE2":"2 49754  53.2177 110.3985 0009712  47.0570 313.1235 15.08843164 30837","MEAN_MOTION":"15.08843164","FILE":"3499203","LAUNCH_DATE":"2021-12-02","ECCENTRICITY":"0.00097120","OBJECT_ID":"2021-115AG","TLE_LINE1":"1 49754U 21115AG  22172.80801339 -.00002709  00000-0 -15173-3 0  9995","CLASSIFICATION_TYPE":"U","GP_ID":"206583110","CENTER_NAME":"EARTH","REF_FRAME":"TEME","MEAN_MOTION_DDOT":"0.0000000000000","MEAN_MOTION_DOT":"-0.00002709","REV_AT_EPOCH":"3083","EPHEMERIS_TYPE":"0","MEAN_ELEMENT_THEORY":"SGP4","ARG_OF_PERICENTER":"47.0570","COUNTRY_CODE":"US","SITE":"AFETR","APOAPSIS":"546.454","DECAY_DATE":null,"PERIAPSIS":"533.017","BSTAR":"-0.00015173000000","OBJECT_NAME":"STARLINK-3193","TIME_SYSTEM":"UTC"}];
